ONEWEB-0512             
1 54130U 22138T   24291.78836475  .00000119  00000+0  26478-3 0  9995
2 54130  87.9151  65.7744 0002090 105.7733 254.3631 13.19722158 97566
ONEWEB-0513             
1 54131U 22138U   24291.60751507  .00000046  00000+0  83298-4 0  9992
2 54131  87.9150  65.8018 0002078 111.0292 249.1063 13.19725522 96554
ONEWEB-0514             
1 54132U 22138V   24291.65252541  .00000056  00000+0  10780-3 0  9998
2 54132  87.9146  65.7842 0001574  97.4705 262.6607 13.19729009 97560
ONEWEB-0515             
1 54133U 22138W   24291.85241838 -.00000252  00000+0 -65101-3 0  9995
2 54133  87.9287  35.2203 0001695  67.8629 292.2684 13.20772015100005
ONEWEB-0516             
1 54134U 22138X   24291.85470376  .00000073  00000+0  15078-3 0  9994
2 54134  87.9147  65.7625 0001775  95.3115 264.8220 13.19723831 97592
ONEWEB-0517             
1 54135U 22138Y   24291.60671916  .00000088  00000+0  18677-3 0  9995
2 54135  87.9144  65.7888 0001478 110.0481 250.0811 13.19728758 97565
ONEWEB-0518             
1 54136U 22138Z   24291.85312811  .00000218  00000+0  51290-3 0  9992
2 54136  87.9149  65.7603 0001603 100.7179 259.4134 13.19729288 97599
ONEWEB-0519             
1 54137U 22138AA  24291.65096023  .00000102  00000+0  22263-3 0  9995
2 54137  87.9146  65.7749 0001557 105.6226 254.5079 13.19723864 97579
