<?xml version="1.0" encoding="UTF-8"?>
<ndm xmlns:xsi="http://www.w3.org/2001/XMLSchema-instance" xsi:noNamespaceSchemaLocation="https://sanaregistry.org/r/ndmxml_unqualified/ndmxml-2.0.0-master-2.0.xsd">
<omm id="CCSDS_OMM_VERS" version="2.0">
<header><CREATION_DATE/><ORIGINATOR/></header><body><segment><metadata><OBJECT_NAME>ONEWEB-0512</OBJECT_NAME><OBJECT_ID>2022-138T</OBJECT_ID><CENTER_NAME>EARTH</CENTER_NAME><REF_FRAME>TEME</REF_FRAME><TIME_SYSTEM>UTC</TIME_SYSTEM><MEAN_ELEMENT_THEORY>SGP4</MEAN_ELEMENT_THEORY></metadata><data><meanElements><EPOCH>2024-10-17T18:55:14.714400</EPOCH><MEAN_MOTION>13.19722158</MEAN_MOTION><ECCENTRICITY>.000209</ECCENTRICITY><INCLINATION>87.9151</INCLINATION><RA_OF_ASC_NODE>65.7744</RA_OF_ASC_NODE><ARG_OF_PERICENTER>105.7733</ARG_OF_PERICENTER><MEAN_ANOMALY>254.3631</MEAN_ANOMALY></meanElements><tleParameters><EPHEMERIS_TYPE>0</EPHEMERIS_TYPE><CLASSIFICATION_TYPE>U</CLASSIFICATION_TYPE><NORAD_CAT_ID>54130</NORAD_CAT_ID><ELEMENT_SET_NO>999</ELEMENT_SET_NO><REV_AT_EPOCH>9669</REV_AT_EPOCH><BSTAR>.26478E-3</BSTAR><MEAN_MOTION_DOT>.119E-5</MEAN_MOTION_DOT><MEAN_MOTION_DDOT>0</MEAN_MOTION_DDOT></tleParameters></data></segment></body></omm>
<omm id="CCSDS_OMM_VERS" version="2.0">
<header><CREATION_DATE/><ORIGINATOR/></header><body><segment><metadata><OBJECT_NAME>ONEWEB-0513</OBJECT_NAME><OBJECT_ID>2022-138U</OBJECT_ID><CENTER_NAME>EARTH</CENTER_NAME><REF_FRAME>TEME</REF_FRAME><TIME_SYSTEM>UTC</TIME_SYSTEM><MEAN_ELEMENT_THEORY>SGP4</MEAN_ELEMENT_THEORY></metadata><data><meanElements><EPOCH>2024-10-17T14:34:49.302048</EPOCH><MEAN_MOTION>13.19725522</MEAN_MOTION><ECCENTRICITY>.0002078</ECCENTRICITY><INCLINATION>87.9150</INCLINATION><RA_OF_ASC_NODE>65.8018</RA_OF_ASC_NODE><ARG_OF_PERICENTER>111.0292</ARG_OF_PERICENTER><MEAN_ANOMALY>249.1063</MEAN_ANOMALY></meanElements><tleParameters><EPHEMERIS_TYPE>0</EPHEMERIS_TYPE><CLASSIFICATION_TYPE>U</CLASSIFICATION_TYPE><NORAD_CAT_ID>54131</NORAD_CAT_ID><ELEMENT_SET_NO>999</ELEMENT_SET_NO><REV_AT_EPOCH>9655</REV_AT_EPOCH><BSTAR>.83298E-4</BSTAR><MEAN_MOTION_DOT>.46E-6</MEAN_MOTION_DOT><MEAN_MOTION_DDOT>0</MEAN_MOTION_DDOT></tleParameters></data></segment></body></omm>
<omm id="CCSDS_OMM_VERS" version="2.0">
<header><CREATION_DATE/><ORIGINATOR/></header><body><segment><metadata><OBJECT_NAME>ONEWEB-0514</OBJECT_NAME><OBJECT_ID>2022-138V</OBJECT_ID><CENTER_NAME>EARTH</CENTER_NAME><REF_FRAME>TEME</REF_FRAME><TIME_SYSTEM>UTC</TIME_SYSTEM><MEAN_ELEMENT_THEORY>SGP4</MEAN_ELEMENT_THEORY></metadata><data><meanElements><EPOCH>2024-10-17T15:39:38.195424</EPOCH><MEAN_MOTION>13.19729009</MEAN_MOTION><ECCENTRICITY>.0001574</ECCENTRICITY><INCLINATION>87.9146</INCLINATION><RA_OF_ASC_NODE>65.7842</RA_OF_ASC_NODE><ARG_OF_PERICENTER>97.4705</ARG_OF_PERICENTER><MEAN_ANOMALY>262.6607</MEAN_ANOMALY></meanElements><tleParameters><EPHEMERIS_TYPE>0</EPHEMERIS_TYPE><CLASSIFICATION_TYPE>U</CLASSIFICATION_TYPE><NORAD_CAT_ID>54132</NORAD_CAT_ID><ELEMENT_SET_NO>999</ELEMENT_SET_NO><REV_AT_EPOCH>9669</REV_AT_EPOCH><BSTAR>.1078E-3</BSTAR><MEAN_MOTION_DOT>.56E-6</MEAN_MOTION_DOT><MEAN_MOTION_DDOT>0</MEAN_MOTION_DDOT></tleParameters></data></segment></body></omm>
<omm id="CCSDS_OMM_VERS" version="2.0">
<header><CREATION_DATE/><ORIGINATOR/></header><body><segment><metadata><OBJECT_NAME>ONEWEB-0515</OBJECT_NAME><OBJECT_ID>2022-138W</OBJECT_ID><CENTER_NAME>EARTH</CENTER_NAME><REF_FRAME>TEME</REF_FRAME><TIME_SYSTEM>UTC</TIME_SYSTEM><MEAN_ELEMENT_THEORY>SGP4</MEAN_ELEMENT_THEORY></metadata><data><meanElements><EPOCH>2024-10-17T20:27:28.948032</EPOCH><MEAN_MOTION>13.20772015</MEAN_MOTION><ECCENTRICITY>.0001695</ECCENTRICITY><INCLINATION>87.9287</INCLINATION><RA_OF_ASC_NODE>35.2203</RA_OF_ASC_NODE><ARG_OF_PERICENTER>67.8629</ARG_OF_PERICENTER><MEAN_ANOMALY>292.2684</MEAN_ANOMALY></meanElements><tleParameters><EPHEMERIS_TYPE>0</EPHEMERIS_TYPE><CLASSIFICATION_TYPE>U</CLASSIFICATION_TYPE><NORAD_CAT_ID>54133</NORAD_CAT_ID><ELEMENT_SET_NO>999</ELEMENT_SET_NO><REV_AT_EPOCH>9913</REV_AT_EPOCH><BSTAR>-.65101E-3</BSTAR><MEAN_MOTION_DOT>-.252E-5</MEAN_MOTION_DOT><MEAN_MOTION_DDOT>0</MEAN_MOTION_DDOT></tleParameters></data></segment></body></omm>
<omm id="CCSDS_OMM_VERS" version="2.0">
<header><CREATION_DATE/><ORIGINATOR/></header><body><segment><metadata><OBJECT_NAME>ONEWEB-0516</OBJECT_NAME><OBJECT_ID>2022-138X</OBJECT_ID><CENTER_NAME>EARTH</CENTER_NAME><REF_FRAME>TEME</REF_FRAME><TIME_SYSTEM>UTC</TIME_SYSTEM><MEAN_ELEMENT_THEORY>SGP4</MEAN_ELEMENT_THEORY></metadata><data><meanElements><EPOCH>2024-10-17T20:30:46.404864</EPOCH><MEAN_MOTION>13.19723831</MEAN_MOTION><ECCENTRICITY>.0001775</ECCENTRICITY><INCLINATION>87.9147</INCLINATION><RA_OF_ASC_NODE>65.7625</RA_OF_ASC_NODE><ARG_OF_PERICENTER>95.3115</ARG_OF_PERICENTER><MEAN_ANOMALY>264.8220</MEAN_ANOMALY></meanElements><tleParameters><EPHEMERIS_TYPE>0</EPHEMERIS_TYPE><CLASSIFICATION_TYPE>U</CLASSIFICATION_TYPE><NORAD_CAT_ID>54134</NORAD_CAT_ID><ELEMENT_SET_NO>999</ELEMENT_SET_NO><REV_AT_EPOCH>9672</REV_AT_EPOCH><BSTAR>.15078E-3</BSTAR><MEAN_MOTION_DOT>.73E-6</MEAN_MOTION_DOT><MEAN_MOTION_DDOT>0</MEAN_MOTION_DDOT></tleParameters></data></segment></body></omm>
<omm id="CCSDS_OMM_VERS" version="2.0">
<header><CREATION_DATE/><ORIGINATOR/></header><body><segment><metadata><OBJECT_NAME>ONEWEB-0517</OBJECT_NAME><OBJECT_ID>2022-138Y</OBJECT_ID><CENTER_NAME>EARTH</CENTER_NAME><REF_FRAME>TEME</REF_FRAME><TIME_SYSTEM>UTC</TIME_SYSTEM><MEAN_ELEMENT_THEORY>SGP4</MEAN_ELEMENT_THEORY></metadata><data><meanElements><EPOCH>2024-10-17T14:33:40.535424</EPOCH><MEAN_MOTION>13.19728758</MEAN_MOTION><ECCENTRICITY>.0001478</ECCENTRICITY><INCLINATION>87.9144</INCLINATION><RA_OF_ASC_NODE>65.7888</RA_OF_ASC_NODE><ARG_OF_PERICENTER>110.0481</ARG_OF_PERICENTER><MEAN_ANOMALY>250.0811</MEAN_ANOMALY></meanElements><tleParameters><EPHEMERIS_TYPE>0</EPHEMERIS_TYPE><CLASSIFICATION_TYPE>U</CLASSIFICATION_TYPE><NORAD_CAT_ID>54135</NORAD_CAT_ID><ELEMENT_SET_NO>999</ELEMENT_SET_NO><REV_AT_EPOCH>9756</REV_AT_EPOCH><BSTAR>.18677E-3</BSTAR><MEAN_MOTION_DOT>.88E-6</MEAN_MOTION_DOT><MEAN_MOTION_DDOT>0</MEAN_MOTION_DDOT></tleParameters></data></segment></body></omm>
<omm id="CCSDS_OMM_VERS" version="2.0">
<header><CREATION_DATE/><ORIGINATOR/></header><body><segment><metadata><OBJECT_NAME>ONEWEB-0518</OBJECT_NAME><OBJECT_ID>2022-138Z</OBJECT_ID><CENTER_NAME>EARTH</CENTER_NAME><REF_FRAME>TEME</REF_FRAME><TIME_SYSTEM>UTC</TIME_SYSTEM><MEAN_ELEMENT_THEORY>SGP4</MEAN_ELEMENT_THEORY></metadata><data><meanElements><EPOCH>2024-10-17T20:28:30.268704</EPOCH><MEAN_MOTION>13.19729288</MEAN_MOTION><ECCENTRICITY>.0001603</ECCENTRICITY><INCLINATION>87.9149</INCLINATION><RA_OF_ASC_NODE>65.7603</RA_OF_ASC_NODE><ARG_OF_PERICENTER>100.7179</ARG_OF_PERICENTER><MEAN_ANOMALY>259.4134</MEAN_ANOMALY></meanElements><tleParameters><EPHEMERIS_TYPE>0</EPHEMERIS_TYPE><CLASSIFICATION_TYPE>U</CLASSIFICATION_TYPE><NORAD_CAT_ID>54136</NORAD_CAT_ID><ELEMENT_SET_NO>999</ELEMENT_SET_NO><REV_AT_EPOCH>9672</REV_AT_EPOCH><BSTAR>.5129E-3</BSTAR><MEAN_MOTION_DOT>.218E-5</MEAN_MOTION_DOT><MEAN_MOTION_DDOT>0</MEAN_MOTION_DDOT></tleParameters></data></segment></body></omm>
<omm id="CCSDS_OMM_VERS" version="2.0">
<header><CREATION_DATE/><ORIGINATOR/></header><body><segment><metadata><OBJECT_NAME>ONEWEB-0519</OBJECT_NAME><OBJECT_ID>2022-138AA</OBJECT_ID><CENTER_NAME>EARTH</CENTER_NAME><REF_FRAME>TEME</REF_FRAME><TIME_SYSTEM>UTC</TIME_SYSTEM><MEAN_ELEMENT_THEORY>SGP4</MEAN_ELEMENT_THEORY></metadata><data><meanElements><EPOCH>2024-10-17T15:37:22.963872</EPOCH><MEAN_MOTION>13.19723864</MEAN_MOTION><ECCENTRICITY>.0001557</ECCENTRICITY><INCLINATION>87.9146</INCLINATION><RA_OF_ASC_NODE>65.7749</RA_OF_ASC_NODE><ARG_OF_PERICENTER>105.6226</ARG_OF_PERICENTER><MEAN_ANOMALY>254.5079</MEAN_ANOMALY></meanElements><tleParameters><EPHEMERIS_TYPE>0</EPHEMERIS_TYPE><CLASSIFICATION_TYPE>U</CLASSIFICATION_TYPE><NORAD_CAT_ID>54137</NORAD_CAT_ID><ELEMENT_SET_NO>999</ELEMENT_SET_NO><REV_AT_EPOCH>9670</REV_AT_EPOCH><BSTAR>.22263E-3</BSTAR><MEAN_MOTION_DOT>.102E-5</MEAN_MOTION_DOT><MEAN_MOTION_DDOT>0</MEAN_MOTION_DDOT></tleParameters></data></segment></body></omm>

</ndm>
